# From MPEC 2015-M77
125P/Spacewatch,e,9.9866,153.1470,87.2262,3.126718,0.1782670,0.51234129,225.3554,02/11.0/2022,2000,g  9.0,4.0
# From MPC 66205
126P/IRAS,e,45.8753,357.8705,356.5577,5.637129,0.0736406,0.69637888,322.4948,02/11.0/2022,2000,g  9.0,4.0
# From MPC 84321
127P/Holt-Olmstead,e,14.2979,13.6110,6.3570,3.454799,0.1534864,0.36011070,332.2679,02/11.0/2022,2000,g 11.0,6.0
# From MPC 89014
128P/Shoemaker-Holt,e,4.3690,214.3086,210.2688,4.490543,0.1035752,0.32121415,192.4653,02/11.0/2022,2000,g  8.5,4.0
# From MPEC 2022-C56
129P/Shoemaker-Levy,e,3.4422,184.8707,307.5863,4.285700,0.1110891,0.08435537,327.4278,02/11.0/2022,2000,g 11.0,4.0
# From MPC 78188
130P/McNaught-Hughes,e,6.0624,70.2048,246.0549,3.383626,0.1583545,0.46130865,234.3378,02/11.0/2022,2000,g 10.0,6.0
# From MPC102101
131P/Mueller,e,7.3580,214.1484,179.0331,3.679900,0.1396207,0.34427402,155.4258,02/11.0/2022,2000,g 11.0,4.0
# From MPEC 2022-C56
132P/Helin-Roman-Alu,e,5.3826,173.9973,216.3520,3.885570,0.1286832,0.56459658,11.5662,02/11.0/2022,2000,g 11.0,6.0
# From MPC 94676
133P/Elst-Pizarro,e,1.3895,160.0996,131.8791,3.165376,0.1750113,0.15667115,216.6964,02/11.0/2022,2000,g 15.4,2.0
# From MPC 89012
134P/Kowal-Vavrova,e,4.3368,202.0619,18.8802,6.262336,0.0628926,0.58549864,177.8290,02/11.0/2022,2000,g 11.5,4.0
# From MPEC 2021-F20
135P/Shoemaker-Levy,e,6.0630,213.0243,22.3201,3.801537,0.1329735,0.29499604,352.6417,02/11.0/2022,2000,g  7.0,8.0
# From MPEC 2020-W26
136P/Mueller,e,9.4243,137.4453,224.9695,4.191715,0.1148461,0.29312832,238.6956,02/11.0/2022,2000,g 11.0,4.0
# From MPEC 2021-N06
137P/Shoemaker-Levy,e,4.8552,232.9959,141.0798,4.520934,0.1025326,0.57372420,118.4110,02/11.0/2022,2000,g 11.0,4.0
# From MPEC 2016-U66
138P/Shoemaker-Levy,e,10.0904,309.3177,95.5451,3.621379,0.1430188,0.53087613,145.1328,02/11.0/2022,2000,g 15.0,6.0
# From MPEC 2020-HN5
139P/Vaisala-Oterma,e,2.3350,242.1536,165.7186,4.520902,0.1025337,0.24726130,156.2301,02/11.0/2022,2000,g  9.5,4.0
# From MPEC 2015-E14
140P/Bowell-Skiff,e,3.8403,343.2455,172.8189,6.423968,0.0605340,0.69215355,144.2329,02/11.0/2022,2000,g 11.5,6.0
# From MPEC 2021-AJ0
141P/Machholz,e,13.9472,241.8254,153.5649,3.057541,0.1843511,0.73585493,77.7349,02/11.0/2022,2000,g 14.7,4.0
# From MPEC 2021-Y10
142P/Ge-Wang,e,12.2515,175.9336,173.9683,4.998740,0.0881888,0.49723257,24.1917,02/11.0/2022,2000,g  8.5,6.0
# From MPEC 2021-W31
143P/Kowal-Mrkos,e,4.7016,245.1548,320.3377,4.278851,0.1113559,0.41134419,153.4616,02/11.0/2022,2000,g 13.5,2.0
# From MPC104795
144P/Kushida,e,3.9327,243.1089,216.3408,3.823611,0.1318237,0.63545056,265.9213,02/11.0/2022,2000,g  8.5,8.0
# From MPC108598
145P/Shoemaker-Levy,e,11.2769,26.7911,10.2433,4.137386,0.1171157,0.54187434,190.0664,02/11.0/2022,2000,g 13.5,4.0
# From MPC100284
146P/Shoemaker-LINEAR,e,23.1070,53.3838,316.9787,4.031158,0.1217753,0.64729255,249.6157,02/11.0/2022,2000,g 15.0,4.0
# From MPC 75720
147P/Kushida-Muramatsu,e,2.3142,92.4386,348.4830,4.027850,0.1219254,0.22237627,279.0872,02/11.0/2022,2000,g 14.0,4.0
# From MPEC 2022-C56
148P/Anderson-LINEAR,e,3.6580,89.2117,8.0232,3.617648,0.1432401,0.54978500,342.4288,02/11.0/2022,2000,g 16.0,2.0
# From MPC 75720
149P/Mueller,e,34.6000,144.1853,31.1766,4.129477,0.1174523,0.32419473,149.7538,02/11.0/2022,2000,g  8.0,8.0
# From MPEC 2021-W31
150P/LONEOS,e,18.5067,272.3050,245.6351,3.878682,0.1290262,0.54786762,261.8224,02/11.0/2022,2000,g 13.5,4.0
# From MPEC 2015-Q71
151P/Helin,e,4.7286,143.1574,216.0700,5.763200,0.0712375,0.57372503,164.8467,02/11.0/2022,2000,g 10.0,6.0
# From MPEC 2021-F20
152P/Helin-Lawrence,e,9.8805,91.8582,163.9450,4.476377,0.1040672,0.30860747,2.9463,02/11.0/2022,2000,g 12.6,4.0
# From MPC 46101
153P/Ikeya-Zhang,e,27.9418,93.2711,34.9491,50.51189,0.0027455,0.98965864,0.0000,03/04.0042/2002,2000,g  9.0,4.0
# From MPC 87068
154P/Brewington,e,17.6331,343.0396,47.8589,4.801641,0.0936741,0.67596444,280.0228,02/11.0/2022,2000,g  2.5,12.0
# From MPEC 2021-F20
155P/Shoemaker,e,6.3977,97.1842,14.5923,6.573908,0.0584748,0.72623834,47.8973,02/11.0/2022,2000,g 13.8,4.0
# From MPEC 2021-O56
156P/Russell-LINEAR,e,17.2644,35.3532,0.4526,3.461592,0.1530348,0.61495806,68.8751,02/11.0/2022,2000,g 15.5,2.0
# From MPEC 2021-W31
157P/Tritton,e,12.4218,287.5689,155.0178,3.546623,0.1475644,0.55676668,328.8948,02/11.0/2022,2000,g 10.0,4.0
# From MPEC 2021-Y10
158P/Kowal-LINEAR,e,7.9207,135.3803,176.6173,5.119118,0.0850964,0.06214295,19.5302,02/11.0/2022,2000,g  9.0,4.0
# From MPEC 2021-N06
159P/LONEOS,e,23.4720,54.9637,4.5614,5.853312,0.0695988,0.38205865,94.7033,02/11.0/2022,2000,g 10.0,4.0
# From MPEC 2021-J28
160P/LINEAR,e,15.6165,333.3597,12.7384,3.775497,0.1343516,0.52629145,107.6795,02/11.0/2022,2000,g 15.5,2.0
# From MPC 75721
161P/Hartley-IRAS,e,95.7970,1.5716,46.9803,7.721896,0.0459323,0.83504604,279.5430,02/11.0/2022,2000,g  8.5,6.0
# From MPEC 2022-C56
162P/SidingSpring,e,27.5572,30.8974,357.1618,3.091692,0.1813050,0.58303246,77.9839,02/11.0/2022,2000,g 12.0,4.0
# From MPEC 2021-S45
163P/NEAT,e,12.7105,102.0778,349.5793,3.766411,0.1348381,0.45206627,124.1771,02/11.0/2022,2000,g 14.5,4.0
# From MPEC 2021-F20
164P/Christensen,e,16.2608,88.2783,325.8397,3.655814,0.1410028,0.54042780,190.5276,02/11.0/2022,2000,g 11.0,4.0
# From MPC 75721
165P/LINEAR,e,15.8948,0.8626,125.9134,17.86322,0.0130546,0.61542673,103.6880,02/11.0/2022,2000,g 11.5,2.0
# From MPC 75722
166P/NEAT,e,15.3752,64.4045,321.5150,13.81596,0.0191925,0.38408495,138.2560,02/11.0/2022,2000,g  5.5,4.0
# From MPC 75722
167P/CINEOS,e,19.1148,295.6859,344.6638,16.23084,0.0150727,0.27126188,114.2642,02/11.0/2022,2000,g  9.5,2.0
# From MPC102101
168P/Hergenrother,e,21.6240,355.4517,15.0072,3.582409,0.1453588,0.62108126,133.7900,02/11.0/2022,2000,g 15.5,4.0
# From MPEC 2021-N06
169P/NEAT,e,11.2989,176.1077,218.0497,2.601425,0.2349022,0.76828392,325.0729,02/11.0/2022,2000,g 16.0,2.0
# From MPEC 2021-O56
170P/Christensen,e,10.1252,142.9219,225.6119,4.200067,0.1145038,0.30401237,310.3026,02/11.0/2022,2000,g 12.0,4.0
# From MPC102102
171P/Spahr,e,21.9378,101.6909,347.0585,3.554719,0.1470605,0.50174256,165.4103,02/11.0/2022,2000,g 13.5,4.0
# From MPEC 2022-C56
172P/Yeung,e,11.2265,30.8844,209.3782,4.214612,0.1139115,0.20502723,204.7737,02/11.0/2022,2000,g 13.0,4.0
# From MPEC 2022-C56
173P/Mueller,e,16.4921,100.3989,29.1738,5.707054,0.0722913,0.26108056,4.0734,02/11.0/2022,2000,g  7.5,4.0
# From MPC 92985
174P/Echeclus,e,4.3436,173.2012,163.2203,10.72922,0.0280448,0.45737928,69.6327,02/11.0/2022,2000,g  9.4,2.0
# From MPC114608
175P/Hergenrother,e,5.5828,120.5693,62.9204,3.523008,0.1490506,0.42924945,126.7738,02/11.0/2022,2000,g 14.0,4.0
# From MPC 89015
176P/LINEAR,e,0.2344,346.0196,34.6453,3.196762,0.1724403,0.19321597,310.9420,02/11.0/2022,2000,g 15.1,2.0
# From MPEC 2020-L06
177P/Barnard,e,31.2181,272.1262,60.3702,24.45163,0.0081516,0.95531334,45.9606,02/11.0/2022,2000,g 15.0,4.0
# From MPEC 2021-F20
178P/Hug-Bell,e,11.0876,102.8630,297.8058,3.632437,0.1423662,0.48221536,81.7542,02/11.0/2022,2000,g 14.6,4.0
# From MPEC 2022-C56
179P/Jedicke,e,19.8980,115.5149,296.8934,5.932559,0.0682089,0.30590086,352.6249,02/11.0/2022,2000,g  2.5,8.0
# From MPC100284
180P/NEAT,e,16.8636,84.5717,94.7421,3.864540,0.1297350,0.35305544,292.9925,02/11.0/2022,2000,g 11.0,4.0
# From MPC 89012
181P/Shoemaker-Levy,e,17.4860,35.4034,336.2320,3.873664,0.1292770,0.70058386,4.2985,02/11.0/2022,2000,g 11.5,4.0
# From MPEC 2014-J10
182P/LONEOS,e,16.2267,72.4598,54.2342,2.950597,0.1944641,0.66319881,342.4509,02/11.0/2022,2000,g 18.0,4.0
# From MPEC 2021-S45
183P/Korlevic-Juric,e,18.9556,4.0844,168.0914,4.575104,0.1007170,0.12841656,154.5385,02/11.0/2022,2000,g 12.5,2.0
# From MPEC 2020-W26
184P/Lovas,e,4.5735,173.2451,186.4944,3.795347,0.1332990,0.55104975,63.0140,02/11.0/2022,2000,g 13.5,4.0
# From MPC109593
185P/Petriew,e,14.0116,214.1057,181.8772,3.098443,0.1807128,0.69949670,266.5750,02/11.0/2022,2000,g 15.0,4.0
# From MPEC 2021-W31
186P/Garradd,e,28.7928,326.5797,271.8612,4.880124,0.0914235,0.12251678,101.9947,02/11.0/2022,2000,g  7.5,4.0
# From MPEC 2020-SI8
187P/LINEAR,e,13.6343,109.9103,131.6466,4.567661,0.1009632,0.15205975,138.2778,02/11.0/2022,2000,g  9.0,4.0
# From MPC106349
188P/LINEAR-Mueller,e,10.5260,358.9659,26.5757,4.372772,0.1077876,0.41630528,195.9638,02/11.0/2022,2000,g 11.5,4.0
# From MPC106349
189P/NEAT,e,20.0682,281.7200,16.3162,2.945867,0.1949325,0.58870684,321.2406,02/11.0/2022,2000,g 19.0,4.0
# From MPEC 2020-K19
190P/Mueller,e,2.1741,335.5688,50.3124,4.232703,0.1131820,0.52181417,241.4777,02/11.0/2022,2000,g 13.0,4.0
# From MPEC 2022-C56
191P/McNaught,e,8.8420,98.2328,284.0483,3.635629,0.1421787,0.38593580,46.6021,02/11.0/2022,2000,g 13.0,4.0
# From MPC 75724
192P/Shoemaker-Levy,e,24.5723,51.6129,313.0047,6.473382,0.0598422,0.77339705,310.1305,02/11.0/2022,2000,g 15.0,4.0
# From MPEC 2022-C56
193P/LINEAR-NEAT,e,10.6885,335.1741,8.0787,3.576862,0.1456971,0.39389530,24.7401,02/11.0/2022,2000,g 14.0,4.0
# From MPC 98566
194P/LINEAR,e,12.0002,349.5914,130.2014,4.071451,0.1199721,0.57627775,273.8370,02/11.0/2022,2000,g 16.0,4.0
# From MPEC 2021-S45
195P/Hill,e,36.3318,243.1258,249.2553,6.505564,0.0593987,0.31371074,285.0165,02/11.0/2022,2000,g  8.5,4.0
# From MPC 92985
196P/Tichy,e,19.2939,24.1301,12.1298,3.805791,0.1327507,0.42866579,325.4078,02/11.0/2022,2000,g 13.5,4.0
# From MPC 94676
197P/LINEAR,e,25.5289,66.3713,188.7483,2.868007,0.2029241,0.62943060,299.1807,02/11.0/2022,2000,g 16.5,2.0
# From NK 1596
198P/ODAS,e,1.3387,358.2481,69.1777,3.597763,0.1444293,0.44373728,166.8117,02/11.0/2022,2000,g  9.0,4.0
# From MPC 75725
199P/Shoemaker,e,24.9319,92.3652,191.7189,5.890140,0.0689470,0.50583181,322.5548,02/11.0/2022,2000,g 10.0,4.0
# From MPEC 2022-C56
200P/Larsen,e,12.0985,234.7725,134.1772,4.943365,0.0896747,0.33268017,83.1661,02/11.0/2022,2000,g  9.0,4.0
# From MPC 93588
201P/LONEOS,e,5.7392,19.7459,41.5484,3.354497,0.1604217,0.63711187,41.7596,02/11.0/2022,2000,g 14.0,4.0
# From MPEC 2021-N06
